[{"OBJECT_NAME":"SHIYAN-20C (SY-20C)","OBJECT_ID":"2022-142A","EPOCH":"2026-03-09T23:50:52.089216","MEAN_MOTION":14.29489925,"ECCENTRICITY":0.00131159,"INCLINATION":59.9943,"RA_OF_ASC_NODE":268.1651,"ARG_OF_PERICENTER":188.0899,"MEAN_ANOMALY":171.9927,"EPHEMERIS_TYPE":0,"CLASSIFICATION_TYPE":"U","NORAD_CAT_ID":54214,"ELEMENT_SET_NO":999,"REV_AT_EPOCH":17551,"BSTAR":7.6576353e-5,"MEAN_MOTION_DOT":6.0e-7,"MEAN_MOTION_DDOT":0},{"OBJECT_NAME":"SL-3 R\/B","OBJECT_ID":"1974-011B","EPOCH":"2026-03-09T17:17:10.866624","MEAN_MOTION":14.13624133,"ECCENTRICITY":0.0079474,"INCLINATION":81.2391,"RA_OF_ASC_NODE":165.6814,"ARG_OF_PERICENTER":311.6269,"MEAN_ANOMALY":47.8114,"EPHEMERIS_TYPE":0,"CLASSIFICATION_TYPE":"U","NORAD_CAT_ID":7210,"ELEMENT_SET_NO":999,"REV_AT_EPOCH":67993,"BSTAR":0.00012116781,"MEAN_MOTION_DOT":2.47e-6,"MEAN_MOTION_DDOT":0}]
